ONEWEB-0512             
1 54130U 22138T   24262.97800191  .00000047  00000+0  84820-4 0  9996
2 54130  87.9102  71.5246 0001542 107.9122 252.2178 13.19723948 93760
ONEWEB-0513             
1 54131U 22138U   24262.49383564  .00000049  00000+0  90849-4 0  9994
2 54131  87.9101  71.6133 0001343 109.0700 251.0579 13.19728045 92719
ONEWEB-0514             
1 54132U 22138V   24262.91798280  .00000056  00000+0  10861-3 0  9990
2 54132  87.9099  71.5207 0001721  90.4867 269.6463 13.19723918 92906
ONEWEB-0515             
1 54133U 22138W   24263.36789283  .00000099  00000+0  21074-3 0  9999
2 54133  87.9244  40.8783 0002687  87.1290 273.0151 13.20772790 96240
ONEWEB-0516             
1 54134U 22138X   24263.42342001  .00000157  00000+0  35938-3 0  9999
2 54134  87.9104  71.4371 0001833  93.7588 266.3754 13.19725235 93841
ONEWEB-0517             
1 54135U 22138Y   24262.49306296 -.00000149  00000+0 -40485-3 0  9998
2 54135  87.9097  71.6016 0001388  84.7100 275.4191 13.19725676 92851
ONEWEB-0518             
1 54136U 22138Z   24263.42184530  .00000129  00000+0  29071-3 0  9992
2 54136  87.9104  71.4348 0001641  91.4954 268.6367 13.19724133 93847
ONEWEB-0519             
1 54137U 22138AA  24263.44708578  .00000096  00000+0  20845-3 0  9992
2 54137  87.9099  71.4058 0001411  91.2039 268.9255 13.19720123 93851
